1 43013U 17073A   26110.55546066  .00000044  00000+0  41662-4 0  9996
2 43013  98.7740  50.5394 0002153  80.7342 279.4078 14.19546279436298
